{"fetched_at":"2026-07-13T07:47:56.614Z","source":"https://celestrak.org/NORAD/elements/gp.php?GROUP=planet&FORMAT=JSON","constellation":"superdove","records":[{"OBJECT_NAME":"FLOCK 4Q-16","OBJECT_ID":"2023-174R","EPOCH":"2026-07-12T19:13:23.503872","CLASSIFICATION_TYPE":"U","MEAN_MOTION":15.50302244,"ECCENTRICITY":0.0006908,"INCLINATION":97.3834,"RA_OF_ASC_NODE":282.522,"ARG_OF_PERICENTER":84.1191,"MEAN_ANOMALY":276.0847,"EPHEMERIS_TYPE":0,"NORAD_CAT_ID":58271,"ELEMENT_SET_NO":999,"REV_AT_EPOCH":14954,"BSTAR":0.00029364,"MEAN_MOTION_DOT":0.00016562,"MEAN_MOTION_DDOT":0},{"OBJECT_NAME":"FLOCK 4Q-11","OBJECT_ID":"2023-174T","EPOCH":"2026-07-12T18:35:39.366816","CLASSIFICATION_TYPE":"U","MEAN_MOTION":15.50801324,"ECCENTRICITY":0.0006494,"INCLINATION":97.3866,"RA_OF_ASC_NODE":283.1278,"ARG_OF_PERICENTER":78.6489,"MEAN_ANOMALY":281.5492,"EPHEMERIS_TYPE":0,"NORAD_CAT_ID":58273,"ELEMENT_SET_NO":999,"REV_AT_EPOCH":14955,"BSTAR":0.00031283,"MEAN_MOTION_DOT":0.00017968,"MEAN_MOTION_DDOT":0},{"OBJECT_NAME":"FLOCK 4Q-28","OBJECT_ID":"2023-174AA","EPOCH":"2026-07-12T16:59:47.197824","CLASSIFICATION_TYPE":"U","MEAN_MOTION":15.56665134,"ECCENTRICITY":0.0004932,"INCLINATION":97.3888,"RA_OF_ASC_NODE":285.7717,"ARG_OF_PERICENTER":71.9488,"MEAN_ANOMALY":288.2304,"EPHEMERIS_TYPE":0,"NORAD_CAT_ID":58280,"ELEMENT_SET_NO":999,"REV_AT_EPOCH":14971,"BSTAR":0.0003049,"MEAN_MOTION_DOT":0.00021663,"MEAN_MOTION_DDOT":0},{"OBJECT_NAME":"FLOCK 4Q-27","OBJECT_ID":"2023-174AC","EPOCH":"2026-07-12T20:07:55.255872","CLASSIFICATION_TYPE":"U","MEAN_MOTION":15.56866116,"ECCENTRICITY":0.000418,"INCLINATION":97.3817,"RA_OF_ASC_NODE":285.3154,"ARG_OF_PERICENTER":75.6767,"MEAN_ANOMALY":284.4952,"EPHEMERIS_TYPE":0,"NORAD_CAT_ID":58282,"ELEMENT_SET_NO":999,"REV_AT_EPOCH":14974,"BSTAR":0.00034235,"MEAN_MOTION_DOT":0.00024524,"MEAN_MOTION_DDOT":0},{"OBJECT_NAME":"FLOCK 4Q-7","OBJECT_ID":"2023-174BQ","EPOCH":"2026-07-12T19:02:26.811168","CLASSIFICATION_TYPE":"U","MEAN_MOTION":15.57250252,"ECCENTRICITY":0.0004826,"INCLINATION":97.3926,"RA_OF_ASC_NODE":286.1818,"ARG_OF_PERICENTER":52.84,"MEAN_ANOMALY":307.3295,"EPHEMERIS_TYPE":0,"NORAD_CAT_ID":58318,"ELEMENT_SET_NO":999,"REV_AT_EPOCH":14973,"BSTAR":0.00039078,"MEAN_MOTION_DOT":0.00028428,"MEAN_MOTION_DDOT":0},{"OBJECT_NAME":"FLOCK 4Q-2","OBJECT_ID":"2023-174BS","EPOCH":"2026-07-12T19:46:39.100224","CLASSIFICATION_TYPE":"U","MEAN_MOTION":15.5076238,"ECCENTRICITY":0.0005049,"INCLINATION":97.3847,"RA_OF_ASC_NODE":282.8918,"ARG_OF_PERICENTER":59.0047,"MEAN_ANOMALY":301.1701,"EPHEMERIS_TYPE":0,"NORAD_CAT_ID":58320,"ELEMENT_SET_NO":999,"REV_AT_EPOCH":14957,"BSTAR":0.00031446,"MEAN_MOTION_DOT":0.00018031,"MEAN_MOTION_DDOT":0},{"OBJECT_NAME":"FLOCK 4Q-9","OBJECT_ID":"2023-174BU","EPOCH":"2026-07-12T17:06:01.881792","CLASSIFICATION_TYPE":"U","MEAN_MOTION":15.51258235,"ECCENTRICITY":0.0005886,"INCLINATION":97.3863,"RA_OF_ASC_NODE":282.8862,"ARG_OF_PERICENTER":58.9232,"MEAN_ANOMALY":301.2597,"EPHEMERIS_TYPE":0,"NORAD_CAT_ID":58322,"ELEMENT_SET_NO":999,"REV_AT_EPOCH":14954,"BSTAR":0.00032783,"MEAN_MOTION_DOT":0.00019142,"MEAN_MOTION_DDOT":0},{"OBJECT_NAME":"FLOCK 4Q-4","OBJECT_ID":"2023-174BZ","EPOCH":"2026-07-12T18:56:07.852992","CLASSIFICATION_TYPE":"U","MEAN_MOTION":15.49787278,"ECCENTRICITY":0.0005996,"INCLINATION":97.3831,"RA_OF_ASC_NODE":282.0863,"ARG_OF_PERICENTER":81.873,"MEAN_ANOMALY":278.3201,"EPHEMERIS_TYPE":0,"NORAD_CAT_ID":58327,"ELEMENT_SET_NO":999,"REV_AT_EPOCH":14952,"BSTAR":0.00031788,"MEAN_MOTION_DOT":0.00017613,"MEAN_MOTION_DDOT":0},{"OBJECT_NAME":"FLOCK 4Q-13","OBJECT_ID":"2023-174CA","EPOCH":"2026-07-12T18:41:18.472992","CLASSIFICATION_TYPE":"U","MEAN_MOTION":15.52808444,"ECCENTRICITY":0.0006099,"INCLINATION":97.401,"RA_OF_ASC_NODE":285.363,"ARG_OF_PERICENTER":62.6074,"MEAN_ANOMALY":297.5799,"EPHEMERIS_TYPE":0,"NORAD_CAT_ID":58328,"ELEMENT_SET_NO":999,"REV_AT_EPOCH":14964,"BSTAR":0.00029875,"MEAN_MOTION_DOT":0.0001843,"MEAN_MOTION_DDOT":0},{"OBJECT_NAME":"FLOCK 4BE-18","OBJECT_ID":"2024-149N","EPOCH":"2026-07-12T17:01:05.687040","CLASSIFICATION_TYPE":"U","MEAN_MOTION":15.42669825,"ECCENTRICITY":0.000496,"INCLINATION":97.3729,"RA_OF_ASC_NODE":277.719,"ARG_OF_PERICENTER":151.4587,"MEAN_ANOMALY":208.6933,"EPHEMERIS_TYPE":0,"NORAD_CAT_ID":60480,"ELEMENT_SET_NO":999,"REV_AT_EPOCH":10624,"BSTAR":0.00020504,"MEAN_MOTION_DOT":0.00008853,"MEAN_MOTION_DDOT":0},{"OBJECT_NAME":"FLOCK 4BE-7","OBJECT_ID":"2024-149P","EPOCH":"2026-07-12T11:31:59.284128","CLASSIFICATION_TYPE":"U","MEAN_MOTION":15.41376569,"ECCENTRICITY":0.00040992,"INCLINATION":97.3761,"RA_OF_ASC_NODE":276.782,"ARG_OF_PERICENTER":155.1561,"MEAN_ANOMALY":204.9884,"EPHEMERIS_TYPE":0,"NORAD_CAT_ID":60481,"ELEMENT_SET_NO":999,"REV_AT_EPOCH":10614,"BSTAR":0.00035323825,"MEAN_MOTION_DOT":0.00014676,"MEAN_MOTION_DDOT":0},{"OBJECT_NAME":"FLOCK 4BE-36","OBJECT_ID":"2024-149U","EPOCH":"2026-07-12T19:07:03.038016","CLASSIFICATION_TYPE":"U","MEAN_MOTION":15.43488814,"ECCENTRICITY":0.0004472,"INCLINATION":97.3751,"RA_OF_ASC_NODE":278.5445,"ARG_OF_PERICENTER":158.4731,"MEAN_ANOMALY":201.6706,"EPHEMERIS_TYPE":0,"NORAD_CAT_ID":60486,"ELEMENT_SET_NO":999,"REV_AT_EPOCH":10630,"BSTAR":0.00027856,"MEAN_MOTION_DOT":0.000124,"MEAN_MOTION_DDOT":0},{"OBJECT_NAME":"FLOCK 4BE-25","OBJECT_ID":"2024-149V","EPOCH":"2026-07-12T18:25:32.604672","CLASSIFICATION_TYPE":"U","MEAN_MOTION":15.39503314,"ECCENTRICITY":0.0003568,"INCLINATION":97.38,"RA_OF_ASC_NODE":277.1018,"ARG_OF_PERICENTER":147.6318,"MEAN_ANOMALY":212.5147,"EPHEMERIS_TYPE":0,"NORAD_CAT_ID":60487,"ELEMENT_SET_NO":999,"REV_AT_EPOCH":10617,"BSTAR":0.00026781,"MEAN_MOTION_DOT":0.00010433,"MEAN_MOTION_DDOT":0},{"OBJECT_NAME":"FLOCK 4BE-31","OBJECT_ID":"2024-149W","EPOCH":"2026-07-12T19:16:07.986144","CLASSIFICATION_TYPE":"U","MEAN_MOTION":15.45092567,"ECCENTRICITY":0.0003758,"INCLINATION":97.3799,"RA_OF_ASC_NODE":279.4857,"ARG_OF_PERICENTER":157.7296,"MEAN_ANOMALY":202.4117,"EPHEMERIS_TYPE":0,"NORAD_CAT_ID":60488,"ELEMENT_SET_NO":999,"REV_AT_EPOCH":10633,"BSTAR":0.0003461,"MEAN_MOTION_DOT":0.00016295,"MEAN_MOTION_DDOT":0},{"OBJECT_NAME":"FLOCK 4BE-20","OBJECT_ID":"2024-149X","EPOCH":"2026-07-12T19:24:34.964064","CLASSIFICATION_TYPE":"U","MEAN_MOTION":15.38770429,"ECCENTRICITY":0.0004694,"INCLINATION":97.3699,"RA_OF_ASC_NODE":275.9574,"ARG_OF_PERICENTER":158.3242,"MEAN_ANOMALY":201.8202,"EPHEMERIS_TYPE":0,"NORAD_CAT_ID":60489,"ELEMENT_SET_NO":999,"REV_AT_EPOCH":10615,"BSTAR":0.00026884,"MEAN_MOTION_DOT":0.00010226,"MEAN_MOTION_DDOT":0},{"OBJECT_NAME":"FLOCK 4BE-23","OBJECT_ID":"2024-149Y","EPOCH":"2026-07-12T17:46:52.256640","CLASSIFICATION_TYPE":"U","MEAN_MOTION":15.38322323,"ECCENTRICITY":0.0004537,"INCLINATION":97.3796,"RA_OF_ASC_NODE":276.2776,"ARG_OF_PERICENTER":162.7384,"MEAN_ANOMALY":197.4017,"EPHEMERIS_TYPE":0,"NORAD_CAT_ID":60490,"ELEMENT_SET_NO":999,"REV_AT_EPOCH":10612,"BSTAR":0.00024192,"MEAN_MOTION_DOT":0.00009058,"MEAN_MOTION_DDOT":0}]}
