FLOCK 4Q-16             
1 58271U 23174R   26193.80096648  .00016562  00000+0  29364-3 0  9998
2 58271  97.3834 282.5220 0006908  84.1191 276.0847 15.50302244149540
FLOCK 4Q-11             
1 58273U 23174T   26193.77476119  .00017968  00000+0  31283-3 0  9995
2 58273  97.3866 283.1278 0006494  78.6489 281.5492 15.50801324149556
FLOCK 4Q-28             
1 58280U 23174AA  26193.70818516  .00021663  00000+0  30490-3 0  9993
2 58280  97.3888 285.7717 0004932  71.9488 288.2304 15.56665134149711
FLOCK 4Q-27             
1 58282U 23174AC  26193.83883398  .00024524  00000+0  34235-3 0  9999
2 58282  97.3817 285.3154 0004180  75.6767 284.4952 15.56866116149745
FLOCK 4Q-7              
1 58318U 23174BQ  26193.79336587  .00028428  00000+0  39078-3 0  9994
2 58318  97.3926 286.1818 0004826  52.8400 307.3295 15.57250252149733
FLOCK 4Q-2              
1 58320U 23174BS  26193.82406366  .00018031  00000+0  31446-3 0  9994
2 58320  97.3847 282.8918 0005049  59.0047 301.1701 15.50762380149575
FLOCK 4Q-9              
1 58322U 23174BU  26193.71252178  .00019142  00000+0  32783-3 0  9993
2 58322  97.3863 282.8862 0005886  58.9232 301.2597 15.51258235149547
FLOCK 4Q-4              
1 58327U 23174BZ  26193.78897978  .00017613  00000+0  31788-3 0  9993
2 58327  97.3831 282.0863 0005996  81.8730 278.3201 15.49787278149525
FLOCK 4Q-13             
1 58328U 23174CA  26193.77868603  .00018430  00000+0  29875-3 0  9998
2 58328  97.4010 285.3630 0006099  62.6074 297.5799 15.52808444149648
FLOCK 4BE-18            
1 60480U 24149N   26193.70909360  .00008853  00000+0  20504-3 0  9990
2 60480  97.3729 277.7190 0004960 151.4587 208.6933 15.42669825106242
FLOCK 4BE-7             
1 60481U 24149P   26193.48054727  .00014676  00000+0  35324-3 0  9990
2 60481  97.3761 276.7820 0004099 155.1561 204.9884 15.41376569106146
FLOCK 4BE-36            
1 60486U 24149U   26193.79656294  .00012400  00000+0  27856-3 0  9990
2 60486  97.3751 278.5445 0004472 158.4731 201.6706 15.43488814106307
FLOCK 4BE-25            
1 60487U 24149V   26193.76773848  .00010433  00000+0  26781-3 0  9993
2 60487  97.3800 277.1018 0003568 147.6318 212.5147 15.39503314106173
FLOCK 4BE-31            
1 60488U 24149W   26193.80287021  .00016295  00000+0  34610-3 0  9994
2 60488  97.3799 279.4857 0003758 157.7296 202.4117 15.45092567106338
FLOCK 4BE-20            
1 60489U 24149X   26193.80873801  .00010226  00000+0  26884-3 0  9994
2 60489  97.3699 275.9574 0004694 158.3242 201.8202 15.38770429106153
FLOCK 4BE-23            
1 60490U 24149Y   26193.74088260  .00009058  00000+0  24192-3 0  9997
2 60490  97.3796 276.2776 0004537 162.7384 197.4017 15.38322323106120
